[Satellite]
VERSION=1.1
NAME=LUCKY-7
NICKNAME=LUCKY-7
TLE1=1 44406U 19038W   19316.88426127  .00000540  00000-0  35071-4 0  9996
TLE2=2 44406  97.5087 276.4241 0025492 151.7918 208.4700 15.11943993 19697
STATUS=0
